NORAD_CAT_ID,OBJECT_NAME,OBJECT_TYPE,EPOCH,MEAN_MOTION,ECCENTRICITY,INCLINATION,RA_OF_ASC_NODE,ARG_OF_PERICENTER,MEAN_ANOMALY,BSTAR,MEAN_MOTION_DOT,MEAN_MOTION_DDOT,TLE_LINE0,TLE_LINE1,TLE_LINE2,SEMIMAJOR_AXIS,PERIOD,APOGEE,PERIGEE,DECAYED
50836.0,STARLINK-3330,PAYLOAD,2023-10-15 07:52:35,15.08845225,0.0001172,53.2137,153.0365,86.4166,273.6961,0.00068947,0.00010704,0.0,0 STARLINK-3330,1 50836U 22001AK  23288.32819151  .00010704  00000-0  68947-3 0  9999,2 50836  53.2137 153.0365 0001172  86.4166 273.6961 15.08845225 99226,6917.864,95.437,540.54,538.919,0.0
50836.0,STARLINK-3330,PAYLOAD,2023-10-15 20:35:41,15.08834821,0.0001242,53.2143,150.6587,96.4923,263.621,7.0957e-05,8.41e-06,0.0,0 STARLINK-3330,1 50836U 22001AK  23288.85811457  .00000841  00000-0  70957-4 0  9994,2 50836  53.2143 150.6587 0001242  96.4923 263.6210 15.08834821 99307,6917.896,95.438,540.62,538.902,0.0
50836.0,STARLINK-3330,PAYLOAD,2023-10-15 22:11:04,15.08840094,0.000125,53.2142,150.3617,96.8677,263.2457,0.00014879,2.081e-05,0.0,0 STARLINK-3330,1 50836U 22001AK  23288.92435325  .00002081  00000-0  14879-3 0  9996,2 50836  53.2142 150.3617 0001250  96.8677 263.2457 15.08840094 97953,6917.88,95.438,540.61,538.88,0.0
50836.0,STARLINK-3330,PAYLOAD,2023-10-16 07:43:23,15.08839172,0.0001241,53.2142,148.5764,88.2632,271.8502,9.4414e-05,1.215e-05,0.0,0 STARLINK-3330,1 50836U 22001AK  23289.32179428  .00001215  00000-0  94414-4 0  9992,2 50836  53.2142 148.5764 0001241  88.2632 271.8502 15.08839172 98010,6917.883,95.438,540.606,538.889,0.0
50836.0,STARLINK-3330,PAYLOAD,2023-10-16 17:15:41,15.08841943,0.0001307,53.2142,146.793,92.9157,267.1985,0.00018121,2.597e-05,0.0,0 STARLINK-3330,1 50836U 22001AK  23289.71923424  .00002597  00000-0  18121-3 0  9992,2 50836  53.2142 146.7930 0001307  92.9157 267.1985 15.08841943 98070,6917.874,95.437,540.644,538.835,0.0
50836.0,STARLINK-3330,PAYLOAD,2023-10-17 23:28:01,15.08844145,0.0001292,53.2144,141.1422,80.7238,279.39,0.00013479,1.858e-05,0.0,0 STARLINK-3330,1 50836U 22001AK  23290.97779301  .00001858  00000-0  13479-3 0  9995,2 50836  53.2144 141.1422 0001292  80.7238 279.3900 15.08844145 99626,6917.868,95.437,540.627,538.839,0.0
50836.0,STARLINK-3330,PAYLOAD,2023-10-18 20:08:02,15.0885935,0.0005194,53.2104,137.2765,93.3848,266.7738,0.00039804,6.056e-05,0.0,0 STARLINK-3330,1 50836U 22001AK  23291.83891679  .00006056  00000-0  39804-3 0  9999,2 50836  53.2104 137.2765 0005194  93.3848 266.7738 15.08859350 98396,6917.821,95.436,543.279,536.093,0.0
50836.0,STARLINK-3330,PAYLOAD,2023-10-19 19:58:49,15.08844002,0.0004903,53.204,132.8137,91.4111,268.7442,-0.00012259,-2.241e-05,0.0,0 STARLINK-3330,1 50836U 22001AK  23292.83251829 -.00002241  00000-0 -12259-3 0  9996,2 50836  53.2040 132.8137 0004903  91.4111 268.7442 15.08844002 99908,6917.868,95.437,543.125,536.341,0.0
50836.0,STARLINK-3330,PAYLOAD,2023-10-20 13:28:04,15.08817142,0.0003686,53.213,129.5429,100.0239,260.1169,-0.00050973,-8.388e-05,0.0,0 STARLINK-3330,1 50836U 22001AK  23293.56116496 -.00008388  00000-0 -50973-3 0  9990,2 50836  53.2130 129.5429 0003686 100.0239 260.1169 15.08817142100012,6917.95,95.439,542.365,537.265,0.0
50836.0,STARLINK-3330,PAYLOAD,2023-10-20 16:38:50,15.08836767,0.0001231,53.2155,128.9495,95.1632,264.9501,4.7975e-06,-2.12e-06,0.0,0 STARLINK-3330,1 50836U 22001AK  23293.69363566 -.00000212  00000-0  47975-5 0  9993,2 50836  53.2155 128.9495 0001231  95.1632 264.9501 15.08836767100038,6917.89,95.438,540.607,538.904,0.0
50836.0,STARLINK-3330,PAYLOAD,2023-10-21 13:18:51,15.08832715,0.0001262,53.2159,125.0832,89.1587,270.9549,9.7991e-05,1.272e-05,0.0,0 STARLINK-3330,1 50836U 22001AK  23294.55475961  .00001272  00000-0  97991-4 0  9990,2 50836  53.2159 125.0832 0001262  89.1587 270.9549 15.08832715 98800,6917.903,95.438,540.641,538.895,0.0
50836.0,STARLINK-3330,PAYLOAD,2023-10-21 19:40:23,15.08838596,0.000133,53.2154,123.8947,84.1788,275.9356,0.00016601,2.355e-05,0.0,0 STARLINK-3330,1 50836U 22001AK  23294.81971776  .00002355  00000-0  16601-3 0  9995,2 50836  53.2154 123.8947 0001330  84.1788 275.9356 15.08838596100204,6917.885,95.438,540.67,538.83,0.0
50836.0,STARLINK-3330,PAYLOAD,2023-10-22 05:12:42,15.08835285,0.0001358,53.2152,122.1106,83.4932,276.6214,8.5267e-05,1.069e-05,0.0,0 STARLINK-3330,1 50836U 22001AK  23295.21716025  .00001069  00000-0  85267-4 0  9990,2 50836  53.2152 122.1106 0001358  83.4932 276.6214 15.08835285 98900,6917.895,95.438,540.699,538.82,0.0
50836.0,STARLINK-3330,PAYLOAD,2023-10-22 19:31:11,15.08832471,0.0001263,53.2158,119.4346,91.1433,268.9703,0.00012407,1.687e-05,0.0,0 STARLINK-3330,1 50836U 22001AK  23295.81332451  .00001687  00000-0  12407-3 0  9994,2 50836  53.2158 119.4346 0001263  91.1433 268.9703 15.08832471100352,6917.903,95.438,540.642,538.895,0.0
50836.0,STARLINK-3330,PAYLOAD,2023-10-23 19:21:57,15.08847162,0.0001207,53.2158,114.9743,87.9769,272.1362,8.8166e-05,1.116e-05,0.0,0 STARLINK-3330,1 50836U 22001AK  23296.80691744  .00001116  00000-0  88166-4 0  9990,2 50836  53.2158 114.9743 0001207  87.9769 272.1362 15.08847162100504,6917.858,95.437,540.558,538.889,0.0
50836.0,STARLINK-3330,PAYLOAD,2023-10-23 22:32:43,15.08848399,0.0001264,53.2158,114.3795,88.6719,271.4418,0.00013809,1.911e-05,0.0,0 STARLINK-3330,1 50836U 22001AK  23296.93939665  .00001911  00000-0  13809-3 0  9995,2 50836  53.2158 114.3795 0001264  88.6719 271.4418 15.08848399 99167,6917.855,95.437,540.594,538.845,0.0
50836.0,STARLINK-3330,PAYLOAD,2023-10-24 04:54:16,15.08836384,0.0001344,53.2158,113.19,85.9418,274.1728,2.4448e-05,1.01e-06,0.0,0 STARLINK-3330,1 50836U 22001AK  23297.20436270  .00000101  00000-0  24448-4 0  9992,2 50836  53.2158 113.1900 0001344  85.9418 274.1728 15.08836384100569,6917.891,95.438,540.686,538.827,0.0
50836.0,STARLINK-3330,PAYLOAD,2023-10-24 12:51:12,15.08838538,0.0001276,53.2158,111.7029,88.4657,271.6482,0.0001175,1.583e-05,0.0,0 STARLINK-3330,1 50836U 22001AK  23297.53556243  .00001583  00000-0  11750-3 0  9997,2 50836  53.2158 111.7029 0001276  88.4657 271.6482 15.08838538 99257,6917.885,95.438,540.633,538.867,0.0
50836.0,STARLINK-3330,PAYLOAD,2023-10-24 14:26:35,15.08840299,0.0001353,53.216,111.4053,90.0568,270.0579,0.0001403,1.946e-05,0.0,0 STARLINK-3330,1 50836U 22001AK  23297.60180164  .00001946  00000-0  14030-3 0  9997,2 50836  53.2160 111.4053 0001353  90.0568 270.0579 15.08840299 99268,6917.879,95.438,540.68,538.808,0.0
50836.0,STARLINK-3330,PAYLOAD,2023-10-25 11:06:36,15.08843762,0.0001291,53.2154,107.5397,89.5981,270.5159,0.00012409,1.688e-05,0.0,0 STARLINK-3330,1 50836U 22001AK  23298.46291898  .00001688  00000-0  12409-3 0  9990,2 50836  53.2154 107.5397 0001291  89.5981 270.5159 15.08843762100755,6917.869,95.437,540.627,538.841,0.0
50836.0,STARLINK-3330,PAYLOAD,2023-10-26 12:32:46,15.08840615,0.0001306,53.2153,102.7817,87.6392,272.4749,0.00010343,1.359e-05,0.0,0 STARLINK-3330,1 50836U 22001AK  23299.52275950  .00001359  00000-0  10343-3 0  9999,2 50836  53.2153 102.7817 0001306  87.6392 272.4749 15.08840615100918,6917.879,95.438,540.647,538.84,0.0
50836.0,STARLINK-3330,PAYLOAD,2023-10-26 20:29:41,15.08849836,0.0001355,53.2159,101.2947,87.9898,272.1249,0.00020253,2.938e-05,0.0,0 STARLINK-3330,1 50836U 22001AK  23299.85395507  .00002938  00000-0  20253-3 0  9991,2 50836  53.2159 101.2947 0001355  87.9898 272.1249 15.08849836 99609,6917.85,95.437,540.653,538.778,0.0
50836.0,STARLINK-3330,PAYLOAD,2023-10-27 04:26:37,15.08846625,0.0001364,53.2159,99.808,85.976,274.1388,0.00012822,1.754e-05,0.0,0 STARLINK-3330,1 50836U 22001AK  23300.18515626  .00001754  00000-0  12822-3 0  9994,2 50836  53.2159  99.8080 0001364  85.9760 274.1388 15.08846625 99659,6917.86,95.437,540.669,538.782,0.0
50836.0,STARLINK-3330,PAYLOAD,2023-10-27 20:20:28,15.08850362,0.0001385,53.216,96.834,88.1823,271.9327,0.00016305,2.309e-05,0.0,0 STARLINK-3330,1 50836U 22001AK  23300.84755215  .00002309  00000-0  16305-3 0  9994,2 50836  53.2160  96.8340 0001385  88.1823 271.9327 15.08850362101111,6917.849,95.437,540.672,538.756,0.0
50836.0,STARLINK-3330,PAYLOAD,2023-10-28 10:38:57,15.08836123,0.0001578,53.2157,94.1563,85.508,274.6093,-0.00024774,-4.228e-05,0.0,0 STARLINK-3330,1 50836U 22001AK  23301.44372018 -.00004228  00000-0 -24774-3 0  9990,2 50836  53.2157  94.1563 0001578  85.5080 274.6093 15.08836123101204,6917.892,95.438,540.849,538.666,0.0
50836.0,STARLINK-3330,PAYLOAD,2023-10-28 13:49:43,15.08830373,0.0001436,53.2158,93.5623,88.5015,271.6142,-6.428e-05,-1.311e-05,0.0,0 STARLINK-3330,1 50836U 22001AK  23301.57620368 -.00001311  00000-0 -64280-4 0  9995,2 50836  53.2158  93.5623 0001436  88.5015 271.6142 15.08830373 99860,6917.91,95.438,540.768,538.781,0.0
50836.0,STARLINK-3330,PAYLOAD,2023-10-28 17:00:30,15.0883296,0.0001248,53.2173,92.9681,95.5211,264.5923,1.6158e-05,-3.1e-07,0.0,0 STARLINK-3330,1 50836U 22001AK  23301.70868439 -.00000031  00000-0  16158-4 0  9991,2 50836  53.2173  92.9681 0001248  95.5211 264.5923 15.08832960 99885,6917.902,95.438,540.63,538.904,0.0
50836.0,STARLINK-3330,PAYLOAD,2023-10-29 10:29:42,15.08890972,8.07e-05,53.2166,89.6958,84.8796,275.2289,-0.00066364,-0.00010849,0.0,0 STARLINK-3330,1 50836U 22001AK  23302.43730126 -.00010849  00000-0 -66364-3 0  9995,2 50836  53.2166  89.6958 0000807  84.8796 275.2289 15.08890972101353,6917.725,95.434,540.148,539.031,0.0
50836.0,STARLINK-3330,PAYLOAD,2023-10-29 13:40:29,15.08872058,0.0001136,53.2173,89.1011,94.1125,265.9997,-0.00033948,-5.691e-05,0.0,0 STARLINK-3330,1 50836U 22001AK  23302.56978436 -.00005691  00000-0 -33948-3 0  9998,2 50836  53.2173  89.1011 0001136  94.1125 265.9997 15.08872058100011,6917.782,95.436,540.433,538.862,0.0
50836.0,STARLINK-3330,PAYLOAD,2023-10-29 16:51:16,15.0885172,0.0001807,53.2172,88.5101,91.004,269.1159,0.00016944,2.41e-05,0.0,0 STARLINK-3330,1 50836U 22001AK  23302.70227547  .00002410  00000-0  16944-3 0  9995,2 50836  53.2172  88.5101 0001807  91.0040 269.1159 15.08851720101391,6917.845,95.437,540.96,538.46,0.0
